STARLINK-31882          
1 59855U 24097W   26068.53533116 -.00000307  00000+0 -16355-5 0  9999
2 59855  43.0030 268.2570 0000852 237.0873 122.9896 15.27575603101975
FLOCK 4G-21             
1 62651U 25009AU  26068.19487675  .00013648  00000+0  49619-3 0  9998
2 62651  97.4032 151.1274 0000465 329.5782  30.5431 15.28381075 63677
